{"fetched_at":"2026-07-16T17:46:05.603Z","source":"https://celestrak.org/NORAD/elements/gp.php?GROUP=oneweb&FORMAT=JSON","constellation":"oneweb","records":[{"OBJECT_NAME":"ONEWEB-0116","OBJECT_ID":"2021-025E","EPOCH":"2026-07-16T07:15:48.181536","CLASSIFICATION_TYPE":"U","MEAN_MOTION":13.13470844,"ECCENTRICITY":0.00018416,"INCLINATION":87.8988,"RA_OF_ASC_NODE":314.4254,"ARG_OF_PERICENTER":102.7508,"MEAN_ANOMALY":257.3827,"EPHEMERIS_TYPE":0,"NORAD_CAT_ID":48046,"ELEMENT_SET_NO":999,"REV_AT_EPOCH":25747,"BSTAR":0.00058549357,"MEAN_MOTION_DOT":0.00000227,"MEAN_MOTION_DDOT":0},{"OBJECT_NAME":"ONEWEB-0150","OBJECT_ID":"2021-025F","EPOCH":"2026-07-16T06:41:40.549920","CLASSIFICATION_TYPE":"U","MEAN_MOTION":13.13470433,"ECCENTRICITY":0.00019155,"INCLINATION":87.899,"RA_OF_ASC_NODE":314.4275,"ARG_OF_PERICENTER":94.0165,"MEAN_ANOMALY":266.1183,"EPHEMERIS_TYPE":0,"NORAD_CAT_ID":48047,"ELEMENT_SET_NO":999,"REV_AT_EPOCH":25736,"BSTAR":-0.00073380384,"MEAN_MOTION_DOT":-0.00000255,"MEAN_MOTION_DDOT":0},{"OBJECT_NAME":"ONEWEB-0107","OBJECT_ID":"2021-025G","EPOCH":"2026-07-16T06:44:06.703296","CLASSIFICATION_TYPE":"U","MEAN_MOTION":13.13472184,"ECCENTRICITY":0.00021271,"INCLINATION":87.8988,"RA_OF_ASC_NODE":314.423,"ARG_OF_PERICENTER":97.3524,"MEAN_ANOMALY":262.7847,"EPHEMERIS_TYPE":0,"NORAD_CAT_ID":48048,"ELEMENT_SET_NO":999,"REV_AT_EPOCH":25734,"BSTAR":-0.00083232396,"MEAN_MOTION_DOT":-0.00000291,"MEAN_MOTION_DDOT":0},{"OBJECT_NAME":"ONEWEB-0101","OBJECT_ID":"2021-025H","EPOCH":"2026-07-16T07:40:10.943040","CLASSIFICATION_TYPE":"U","MEAN_MOTION":13.13471034,"ECCENTRICITY":0.00020857,"INCLINATION":87.8977,"RA_OF_ASC_NODE":314.4283,"ARG_OF_PERICENTER":102.5932,"MEAN_ANOMALY":257.543,"EPHEMERIS_TYPE":0,"NORAD_CAT_ID":48049,"ELEMENT_SET_NO":999,"REV_AT_EPOCH":25732,"BSTAR":0.00096326203,"MEAN_MOTION_DOT":0.00000365,"MEAN_MOTION_DDOT":0},{"OBJECT_NAME":"ONEWEB-0113","OBJECT_ID":"2021-025J","EPOCH":"2026-07-15T21:03:48.548736","CLASSIFICATION_TYPE":"U","MEAN_MOTION":13.138908,"ECCENTRICITY":0.0001857,"INCLINATION":87.8984,"RA_OF_ASC_NODE":314.4235,"ARG_OF_PERICENTER":95.5526,"MEAN_ANOMALY":264.5815,"EPHEMERIS_TYPE":0,"NORAD_CAT_ID":48050,"ELEMENT_SET_NO":999,"REV_AT_EPOCH":25737,"BSTAR":-0.000065017,"MEAN_MOTION_DOT":-1.1e-7,"MEAN_MOTION_DDOT":0},{"OBJECT_NAME":"ONEWEB-0112","OBJECT_ID":"2021-025K","EPOCH":"2026-07-16T06:51:25.533216","CLASSIFICATION_TYPE":"U","MEAN_MOTION":13.13470402,"ECCENTRICITY":0.00022219,"INCLINATION":87.8987,"RA_OF_ASC_NODE":314.4207,"ARG_OF_PERICENTER":102.8428,"MEAN_ANOMALY":257.2949,"EPHEMERIS_TYPE":0,"NORAD_CAT_ID":48051,"ELEMENT_SET_NO":999,"REV_AT_EPOCH":25741,"BSTAR":-0.00048033989,"MEAN_MOTION_DOT":-0.00000163,"MEAN_MOTION_DDOT":0},{"OBJECT_NAME":"ONEWEB-0156","OBJECT_ID":"2021-025L","EPOCH":"2026-07-15T20:05:25.765728","CLASSIFICATION_TYPE":"U","MEAN_MOTION":13.13472413,"ECCENTRICITY":0.00020102,"INCLINATION":87.8986,"RA_OF_ASC_NODE":314.5194,"ARG_OF_PERICENTER":95.9923,"MEAN_ANOMALY":264.1435,"EPHEMERIS_TYPE":0,"NORAD_CAT_ID":48052,"ELEMENT_SET_NO":999,"REV_AT_EPOCH":25733,"BSTAR":-0.000015761741,"MEAN_MOTION_DOT":7e-8,"MEAN_MOTION_DDOT":0},{"OBJECT_NAME":"ONEWEB-0161","OBJECT_ID":"2021-025M","EPOCH":"2026-07-16T06:27:02.738016","CLASSIFICATION_TYPE":"U","MEAN_MOTION":13.13468982,"ECCENTRICITY":0.00020006,"INCLINATION":87.8988,"RA_OF_ASC_NODE":314.4341,"ARG_OF_PERICENTER":99.0525,"MEAN_ANOMALY":261.083,"EPHEMERIS_TYPE":0,"NORAD_CAT_ID":48053,"ELEMENT_SET_NO":999,"REV_AT_EPOCH":25732,"BSTAR":-0.00033216481,"MEAN_MOTION_DOT":-0.00000109,"MEAN_MOTION_DDOT":0},{"OBJECT_NAME":"ONEWEB-0158","OBJECT_ID":"2021-025N","EPOCH":"2026-07-16T07:18:15.427008","CLASSIFICATION_TYPE":"U","MEAN_MOTION":13.13472293,"ECCENTRICITY":0.00018351,"INCLINATION":87.8985,"RA_OF_ASC_NODE":314.4249,"ARG_OF_PERICENTER":108.6956,"MEAN_ANOMALY":251.4373,"EPHEMERIS_TYPE":0,"NORAD_CAT_ID":48054,"ELEMENT_SET_NO":999,"REV_AT_EPOCH":25745,"BSTAR":0.00058527835,"MEAN_MOTION_DOT":0.00000226,"MEAN_MOTION_DDOT":0},{"OBJECT_NAME":"ONEWEB-0157","OBJECT_ID":"2021-025P","EPOCH":"2026-07-16T06:05:06.268128","CLASSIFICATION_TYPE":"U","MEAN_MOTION":13.13470978,"ECCENTRICITY":0.00023077,"INCLINATION":87.8984,"RA_OF_ASC_NODE":314.4399,"ARG_OF_PERICENTER":96.3284,"MEAN_ANOMALY":263.8108,"EPHEMERIS_TYPE":0,"NORAD_CAT_ID":48055,"ELEMENT_SET_NO":999,"REV_AT_EPOCH":25738,"BSTAR":0.00036909674,"MEAN_MOTION_DOT":0.00000148,"MEAN_MOTION_DDOT":0},{"OBJECT_NAME":"ONEWEB-0162","OBJECT_ID":"2021-025Q","EPOCH":"2026-07-16T07:20:29.729760","CLASSIFICATION_TYPE":"U","MEAN_MOTION":13.13469936,"ECCENTRICITY":0.00018851,"INCLINATION":87.8981,"RA_OF_ASC_NODE":314.43,"ARG_OF_PERICENTER":95.3373,"MEAN_ANOMALY":264.7971,"EPHEMERIS_TYPE":0,"NORAD_CAT_ID":48056,"ELEMENT_SET_NO":999,"REV_AT_EPOCH":25736,"BSTAR":0.00072914126,"MEAN_MOTION_DOT":0.00000279,"MEAN_MOTION_DDOT":0},{"OBJECT_NAME":"ONEWEB-0155","OBJECT_ID":"2021-025R","EPOCH":"2026-07-16T07:30:26.450496","CLASSIFICATION_TYPE":"U","MEAN_MOTION":13.13474078,"ECCENTRICITY":0.00020351,"INCLINATION":87.8983,"RA_OF_ASC_NODE":314.4248,"ARG_OF_PERICENTER":97.9257,"MEAN_ANOMALY":262.2103,"EPHEMERIS_TYPE":0,"NORAD_CAT_ID":48057,"ELEMENT_SET_NO":999,"REV_AT_EPOCH":25750,"BSTAR":0.00092199774,"MEAN_MOTION_DOT":0.00000349,"MEAN_MOTION_DDOT":0},{"OBJECT_NAME":"ONEWEB-0149","OBJECT_ID":"2021-025S","EPOCH":"2026-07-16T06:12:25.767648","CLASSIFICATION_TYPE":"U","MEAN_MOTION":13.13469316,"ECCENTRICITY":0.00018594,"INCLINATION":87.8987,"RA_OF_ASC_NODE":314.4397,"ARG_OF_PERICENTER":93.8478,"MEAN_ANOMALY":266.2864,"EPHEMERIS_TYPE":0,"NORAD_CAT_ID":48058,"ELEMENT_SET_NO":999,"REV_AT_EPOCH":25730,"BSTAR":-0.000044238781,"MEAN_MOTION_DOT":-3e-8,"MEAN_MOTION_DDOT":0},{"OBJECT_NAME":"ONEWEB-0148","OBJECT_ID":"2021-025T","EPOCH":"2026-07-16T07:08:29.610816","CLASSIFICATION_TYPE":"U","MEAN_MOTION":13.13470242,"ECCENTRICITY":0.00019214,"INCLINATION":87.8978,"RA_OF_ASC_NODE":314.4372,"ARG_OF_PERICENTER":82.7028,"MEAN_ANOMALY":277.4319,"EPHEMERIS_TYPE":0,"NORAD_CAT_ID":48059,"ELEMENT_SET_NO":999,"REV_AT_EPOCH":25743,"BSTAR":0.00020667289,"MEAN_MOTION_DOT":8.8e-7,"MEAN_MOTION_DDOT":0},{"OBJECT_NAME":"ONEWEB-0160","OBJECT_ID":"2021-025U","EPOCH":"2026-07-16T07:32:51.960192","CLASSIFICATION_TYPE":"U","MEAN_MOTION":13.13469909,"ECCENTRICITY":0.00014428,"INCLINATION":87.8977,"RA_OF_ASC_NODE":314.4299,"ARG_OF_PERICENTER":118.4736,"MEAN_ANOMALY":241.6538,"EPHEMERIS_TYPE":0,"NORAD_CAT_ID":48060,"ELEMENT_SET_NO":999,"REV_AT_EPOCH":25738,"BSTAR":0.00097000372,"MEAN_MOTION_DOT":0.00000367,"MEAN_MOTION_DDOT":0},{"OBJECT_NAME":"ONEWEB-0163","OBJECT_ID":"2021-025V","EPOCH":"2026-07-16T07:10:55.894656","CLASSIFICATION_TYPE":"U","MEAN_MOTION":13.13470141,"ECCENTRICITY":0.00022302,"INCLINATION":87.8987,"RA_OF_ASC_NODE":314.4296,"ARG_OF_PERICENTER":97.0891,"MEAN_ANOMALY":263.0492,"EPHEMERIS_TYPE":0,"NORAD_CAT_ID":48061,"ELEMENT_SET_NO":999,"REV_AT_EPOCH":25750,"BSTAR":0.00031643102,"MEAN_MOTION_DOT":0.00000128,"MEAN_MOTION_DDOT":0}]}
